1 33960U 97051BV  26114.81044589  .00016134  00000+0  15656-2 0  9995
2 33960  86.2544 226.3727 0001034 173.6898 307.5537 14.92562606908470
